[{"OBJECT_NAME":"HAWK-11B","OBJECT_ID":"2024-247C","EPOCH":"2026-03-09T10:44:06.809856","MEAN_MOTION":15.2884707,"ECCENTRICITY":0.00046902,"INCLINATION":45.0161,"RA_OF_ASC_NODE":115.761,"ARG_OF_PERICENTER":333.0326,"MEAN_ANOMALY":27.0314,"EPHEMERIS_TYPE":0,"CLASSIFICATION_TYPE":"U","NORAD_CAT_ID":62379,"ELEMENT_SET_NO":999,"REV_AT_EPOCH":6773,"BSTAR":0.00032841927,"MEAN_MOTION_DOT":9.093e-5,"MEAN_MOTION_DDOT":0},{"OBJECT_NAME":"STARLINK-35828","OBJECT_ID":"2025-254D","EPOCH":"2026-03-09T17:27:41.011200","MEAN_MOTION":15.30207958,"ECCENTRICITY":0.00012445,"INCLINATION":53.1582,"RA_OF_ASC_NODE":232.1236,"ARG_OF_PERICENTER":81.2537,"MEAN_ANOMALY":278.8604,"EPHEMERIS_TYPE":0,"CLASSIFICATION_TYPE":"U","NORAD_CAT_ID":66351,"ELEMENT_SET_NO":999,"REV_AT_EPOCH":1898,"BSTAR":0.00092762101,"MEAN_MOTION_DOT":0.00027222,"MEAN_MOTION_DDOT":0}]
